$$SOE
2459580.500000000, A.D. 2022-Jan-01 00:00:00.0000, 1.548094644749811E+08, 3.086774588403355E+08, -1.406357860875739E+07,
2459587.500000000, A.D. 2022-Jan-08 00:00:00.0000, 1.439960760301234E+08, 3.138103991110951E+08, -1.391073062771168E+07,
2459594.500000000, A.D. 2022-Jan-15 00:00:00.0000, 1.330132625326849E+08, 3.185741293718589E+08, -1.374151642687555E+07,
2459601.500000000, A.D. 2022-Jan-22 00:00:00.0000, 1.218738801781647E+08, 3.229628836580963E+08, -1.355612848383506E+07,
2459608.500000000, A.D. 2022-Jan-29 00:00:00.0000, 1.105909915433610E+08, 3.269713622348180E+08, -1.335477952447923E+07,
2459615.500000000, A.D. 2022-Feb-05 00:00:00.0000, 9.917784545379268E+07, 3.305947389802481E+08, -1.313770210728635E+07,
2459622.500000000, A.D. 2022-Feb-12 00:00:00.0000, 8.764785866785428E+07, 3.338286669338635E+08, -1.290514845840706E+07,
2459629.500000000, A.D. 2022-Feb-19 00:00:00.0000, 7.601459809571795E+07, 3.366692843583384E+08, -1.265739024383657E+07,
2459636.500000000, A.D. 2022-Feb-26 00:00:00.0000, 6.429176227968090E+07, 3.391132205712085E+08, -1.239471821786380E+07,
2459643.500000000, A.D. 2022-Mar-05 00:00:00.0000, 5.249316233389342E+07, 3.411576009143326E+08, -1.211744181345926E+07,
2459650.500000000, A.D. 2022-Mar-12 00:00:00.0000, 4.063270260618173E+07, 3.428000507842842E+08, -1.182588870136057E+07,
2459657.500000000, A.D. 2022-Mar-19 00:00:00.0000, 2.872436117516311E+07, 3.440386987431139E+08, -1.152040432330932E+07,
2459664.500000000, A.D. 2022-Mar-26 00:00:00.0000, 1.678217024783469E+07, 3.448721786973203E+08, -1.120135140328923E+07,
2459671.500000000, A.D. 2022-Apr-02 00:00:00.0000, 4.820196568472496E+06, 3.452996310853538E+08, -1.086910944889283E+07,
2459678.500000000, A.D. 2022-Apr-09 00:00:00.0000, -7.147477846335583E+06, 3.453207030772668E+08, -1.052407426872312E+07,
2459685.500000000, A.D. 2022-Apr-16 00:00:00.0000, -1.910677424734534E+07, 3.449355484435270E+08, -1.016665748665574E+07,
2459692.500000000, A.D. 2022-Apr-23 00:00:00.0000, -3.104363619200385E+07, 3.441448281855381E+08, -9.797285850102186E+06,
2459699.500000000, A.D. 2022-Apr-30 00:00:00.0000, -4.294405090600947E+07, 3.429497096859503E+08, -9.416400345847160E+06,
2459706.500000000, A.D. 2022-May-07 00:00:00.0000, -5.479406986571705E+07, 3.413518624050020E+08, -9.024455565713957E+06,
2459713.500000000, A.D. 2022-May-14 00:00:00.0000, -6.657982717664918E+07, 3.393534531790896E+08, -8.621919203117505E+06,
2459720.500000000, A.D. 2022-May-21 00:00:00.0000, -7.828755773558949E+07, 3.369571418993988E+08, -8.209271434793085E+06,
2459727.500000000, A.D. 2022-May-28 00:00:00.0000, -8.990361561394122E+07, 3.341660766251862E+08, -7.787004223564804E+06,
2459734.500000000, A.D. 2022-Jun-04 00:00:00.0000, -1.014144923479003E+08, 3.309838878354234E+08, -7.355620594502300E+06,
2459741.500000000, A.D. 2022-Jun-11 00:00:00.0000, -1.128068349547803E+08, 3.274146818411539E+08, -6.915633899131849E+06,
2459748.500000000, A.D. 2022-Jun-18 00:00:00.0000, -1.240674636019996E+08, 3.234630333943009E+08, -6.467567071800396E+06,
2459755.500000000, A.D. 2022-Jun-25 00:00:00.0000, -1.351833888659480E+08, 3.191339774839642E+08, -6.011951885224283E+06,
2459762.500000000, A.D. 2022-Jul-02 00:00:00.0000, -1.461418284150548E+08, 3.144330002800887E+08, -5.549328224453703E+06,
2459769.500000000, A.D. 2022-Jul-09 00:00:00.0000, -1.569302226972636E+08, 3.093660294282795E+08, -5.080243402079374E+06,
2459776.500000000, A.D. 2022-Jul-16 00:00:00.0000, -1.675362496611092E+08, 3.039394248075306E+08, -4.605251422694415E+06,
2459783.500000000, A.D. 2022-Jul-23 00:00:00.0000, -1.779478406854251E+08, 2.981599698628106E+08, -4.124911990673631E+06,
2459790.500000000, A.D. 2022-Jul-30 00:00:00.0000, -1.881531976056080E+08, 2.920348601914673E+08, -3.639789544707775E+06,
2459797.500000000, A.D. 2022-Aug-06 00:00:00.0000, -1.981408072134758E+08, 2.855716900548948E+08, -3.150452596447319E+06,
2459804.500000000, A.D. 2022-Aug-13 00:00:00.0000, -2.078994540426197E+08, 2.787784396034404E+08, -2.657473074187040E+06,
2459811.500000000, A.D. 2022-Aug-20 00:00:00.0000, -2.174182329939365E+08, 2.716634623530579E+08, -2.161425571120933E+06,
2459818.500000000, A.D. 2022-Aug-27 00:00:00.0000, -2.266865617150728E+08, 2.642354722241909E+08, -1.662886565251425E+06,
2459825.500000000, A.D. 2022-Sep-03 00:00:00.0000, -2.356941924686410E+08, 2.565035300671145E+08, -1.162433643843964E+06,
2459832.500000000, A.D. 2022-Sep-10 00:00:00.0000, -2.444312233818992E+08, 2.484770297301461E+08, -6.606447396228909E+05,
2459839.500000000, A.D. 2022-Sep-17 00:00:00.0000, -2.528881090335049E+08, 2.401656836971045E+08, -1.580973821243644E+05,
2459846.500000000, A.D. 2022-Sep-24 00:00:00.0000, -2.610556703091287E+08, 2.315795082690030E+08, 3.446320254936069E+05,
2459853.500000000, A.D. 2022-Oct-01 00:00:00.0000, -2.689251032869276E+08, 2.227288082970855E+08, 8.469688791985661E+05,
2459860.500000000, A.D. 2022-Oct-08 00:00:00.0000, -2.764879867509434E+08, 2.136241620251008E+08, 1.348340999932706E+06,
2459867.500000000, A.D. 2022-Oct-15 00:00:00.0000, -2.837362892698074E+08, 2.042764072795157E+08, 1.848179393992499E+06,
2459874.500000000, A.D. 2022-Oct-22 00:00:00.0000, -2.906623780276791E+08, 1.946966273650186E+08, 2.345919208335117E+06,
2459881.500000000, A.D. 2022-Oct-29 00:00:00.0000, -2.972590269083053E+08, 1.848961341109705E+08, 2.841000438421465E+06,
2459888.500000000, A.D. 2022-Nov-05 00:00:00.0000, -3.035194217270918E+08, 1.748864508369170E+08, 3.332868419878185E+06,
2459895.500000000, A.D. 2022-Nov-12 00:00:00.0000, -3.094371645827500E+08, 1.646792965285743E+08, 3.820974386919953E+06,
2459902.500000000, A.D. 2022-Nov-19 00:00:00.0000, -3.150062780597222E+08, 1.542865703013564E+08, 4.304776084197804E+06,
2459909.500000000, A.D. 2022-Nov-26 00:00:00.0000, -3.202212090274805E+08, 1.437203357842405E+08, 4.783738374798879E+06,
2459916.500000000, A.D. 2022-Dec-03 00:00:00.0000, -3.250768318794376E+08, 1.329928054391274E+08, 5.257333827762723E+06,
2459923.500000000, A.D. 2022-Dec-10 00:00:00.0000, -3.295684511769391E+08, 1.221163248597526E+08, 5.725043282016717E+06,
2459930.500000000, A.D. 2022-Dec-17 00:00:00.0000, -3.336918036862202E+08, 1.111033570498156E+08, 6.186356382014059E+06,
2459937.500000000, A.D. 2022-Dec-24 00:00:00.0000, -3.374430597125334E+08, 9.996646663824712E+07, 6.640772069337800E+06,
2459944.500000000, A.D. 2022-Dec-31 00:00:00.0000, -3.408188233879324E+08, 8.871830416168842E+07, 7.087799006034482E+06,
2459951.500000000, A.D. 2023-Jan-07 00:00:00.0000, -3.438161318043528E+08, 7.737159139738005E+07, 7.526955996922355E+06,
2459958.500000000, A.D. 2023-Jan-14 00:00:00.0000, -3.464324549753322E+08, 6.593910826178896E+07, 7.957772631689996E+06,
2459965.500000000, A.D. 2023-Jan-21 00:00:00.0000, -3.486656972921687E+08, 5.443367812091099E+07, 8.379789946351435E+06,
2459972.500000000, A.D. 2023-Jan-28 00:00:00.0000, -3.505141968255921E+08, 4.286815133783968E+07, 8.792560751808641E+06,
2459979.500000000, A.D. 2023-Feb-04 00:00:00.0000, -3.519767226927168E+08, 3.125539010231780E+07, 9.195649896675149E+06,
2459986.500000000, A.D. 2023-Feb-11 00:00:00.0000, -3.530524722998738E+08, 1.960825435907592E+07, 9.588634613297055E+06,
2459993.500000000, A.D. 2023-Feb-18 00:00:00.0000, -3.537410685473129E+08, 7.939588023604968E+06, 9.971104885393117E+06,
2460000.500000000, A.D. 2023-Feb-25 00:00:00.0000, -3.540425567545167E+08, -3.737794662358133E+06, 1.034266380032910E+07,
2460007.500000000, A.D. 2023-Mar-04 00:00:00.0000, -3.539574012227149E+08, -1.541112260412857E+07, 1.070292787877243E+07,
2460014.500000000, A.D. 2023-Mar-11 00:00:00.0000, -3.534864814241141E+08, -2.706768114463715E+07, 1.105152737972628E+07,
2460021.500000000, A.D. 2023-Mar-18 00:00:00.0000, -3.526310877885650E+08, -3.869482521151187E+07, 1.138810657310450E+07,
2460028.500000000, A.D. 2023-Mar-25 00:00:00.0000, -3.513929169009616E+08, -5.027999235826965E+07, 1.171232395777355E+07,
2460035.500000000, A.D. 2023-Apr-01 00:00:00.0000, -3.497740656994269E+08, -6.181071529780796E+07, 1.202385241856737E+07,
2460042.500000000, A.D. 2023-Apr-08 00:00:00.0000, -3.477770253021549E+08, -7.327463269735274E+07, 1.232237947894764E+07,
2460049.500000000, A.D. 2023-Apr-15 00:00:00.0000, -3.454046768132339E+08, -8.465949933958465E+07, 1.260760777322689E+07,
2460056.500000000, A.D. 2023-Apr-22 00:00:00.0000, -3.426602873173449E+08, -9.595319870359923E+07, 1.287925532316253E+07,
2460063.500000000, A.D. 2023-Apr-29 00:00:00.0000, -3.395475033497770E+08, -1.071437557124744E+08, 1.313705555299106E+07,
2460070.500000000, A.D. 2023-May-06 00:00:00.0000, -3.360703436192434E+08, -1.182193478641069E+08, 1.338075735095061E+07,
2460077.500000000, A.D. 2023-May-13 00:00:00.0000, -3.322331919765337E+08, -1.291683156392400E+08, 1.361012519442023E+07,
2460084.500000000, A.D. 2023-May-20 00:00:00.0000, -3.280407904147928E+08, -1.399791726792653E+08, 1.382493927738935E+07,
2460091.500000000, A.D. 2023-May-27 00:00:00.0000, -3.234982319282790E+08, -1.506406157614058E+08, 1.402499562064259E+07,
2460098.500000000, A.D. 2023-Jun-03 00:00:00.0000, -3.186109531870368E+08, -1.611415345401655E+08, 1.421010616205426E+07,
2460105.500000000, A.D. 2023-Jun-10 00:00:00.0000, -3.133847270118064E+08, -1.714710210639792E+08, 1.438009882386869E+07,
2460112.500000000, A.D. 2023-Jun-17 00:00:00.0000, -3.078256545640476E+08, -1.816183791268258E+08, 1.453481754362129E+07,
2460119.500000000, A.D. 2023-Jun-24 00:00:00.0000, -3.019401569364944E+08, -1.915731334052767E+08, 1.467412224345880E+07,
2460126.500000000, A.D. 2023-Jul-01 00:00:00.0000, -2.957349659022453E+08, -2.013250375624647E+08, 1.479788878214876E+07,
2460133.500000000, A.D. 2023-Jul-08 00:00:00.0000, -2.892171155115713E+08, -2.108640805049618E+08, 1.490600911071102E+07,
2460140.500000000, A.D. 2023-Jul-15 00:00:00.0000, -2.823939358287467E+08, -2.201804936281554E+08, 1.499839151790616E+07,
2460147.500000000, A.D. 2023-Jul-22 00:00:00.0000, -2.752730453028426E+08, -2.292647600894524E+08, 1.507496055869561E+07,
$$EOE